{"type": "FeatureCollection", "features": [{"type": "Feature", "properties": {"norad_id": 22490, "name": "SCD 1", "group": "resource", "lat": -16.5482419297667, "lon": 149.94759046839116, "alt_km": 766.7600003927992, "timestamp": "2025-12-27T03:58:43.834487+00:00", "meta": {"OBJECT_NAME": "SCD 1", "OBJECT_ID": "1993-009B", "EPOCH": "2025-12-26T15:05:04.547040", "MEAN_MOTION": 14.46008245, "ECCENTRICITY": 0.0042179, "INCLINATION": 24.9674, "RA_OF_ASC_NODE": 192.9471, "ARG_OF_PERICENTER": 111.7084, "MEAN_ANOMALY": 283.5703, "EPHEMERIS_TYPE": 0, "CLASSIFICATION_TYPE": "U", "NORAD_CAT_ID": 22490, "ELEMENT_SET_NO": 999, "REV_AT_EPOCH": 73611, "BSTAR": 9.5318e-05, "MEAN_MOTION_DOT": 5.34e-06, "MEAN_MOTION_DDOT": 0}, "tle": {"line1": "1 22490U 93009B   25360.62852485  .00000534  00000+0  95318-4 0  9995", "line2": "2 22490  24.9674 192.9471 0042179 111.7084 283.5703 14.46008245736119"}}, "geometry": {"type": "Point", "coordinates": [149.94759046839116, -16.5482419297667]}}, {"type": "Feature", "properties": {"norad_id": 25397, "name": "TECHSAT 1B (GO-32)", "group": "resource", "lat": -57.961730792711656, "lon": -0.629344816288251, "alt_km": 817.6630532232866, "timestamp": "2025-12-27T03:58:43.834527+00:00", "meta": {"OBJECT_NAME": "TECHSAT 1B (GO-32)", "OBJECT_ID": "1998-043D", "EPOCH": "2025-12-26T11:23:49.320096", "MEAN_MOTION": 14.24380794, "ECCENTRICITY": 0.000162, "INCLINATION": 98.9934, "RA_OF_ASC_NODE": 344.0048, "ARG_OF_PERICENTER": 34.4402, "MEAN_ANOMALY": 325.6881, "EPHEMERIS_TYPE": 0, "CLASSIFICATION_TYPE": "U", "NORAD_CAT_ID": 25397, "ELEMENT_SET_NO": 999, "REV_AT_EPOCH": 42674, "BSTAR": 6.2807e-05, "MEAN_MOTION_DOT": 9.9e-07, "MEAN_MOTION_DDOT": 0}, "tle": {"line1": "1 25397U 98043D   25360.47487639  .00000099  00000+0  62807-4 0  9998", "line2": "2 25397  98.9934 344.0048 0001620  34.4402 325.6881 14.24380794426747"}}, "geometry": {"type": "Point", "coordinates": [-0.629344816288251, -57.961730792711656]}}, {"type": "Feature", "properties": {"norad_id": 25504, "name": "SCD 2", "group": "resource", "lat": -15.927168781186474, "lon": 15.175631930074383, "alt_km": 750.4777644388696, "timestamp": "2025-12-27T03:58:43.834540+00:00", "meta": {"OBJECT_NAME": "SCD 2", "OBJECT_ID": "1998-060A", "EPOCH": "2025-12-26T13:56:13.357824", "MEAN_MOTION": 14.45430804, "ECCENTRICITY": 0.0017071, "INCLINATION": 24.9957, "RA_OF_ASC_NODE": 56.5516, "ARG_OF_PERICENTER": 99.0432, "MEAN_ANOMALY": 49.9342, "EPHEMERIS_TYPE": 0, "CLASSIFICATION_TYPE": "U", "NORAD_CAT_ID": 25504, "ELEMENT_SET_NO": 999, "REV_AT_EPOCH": 43532, "BSTAR": 8.1486e-05, "MEAN_MOTION_DOT": 4.74e-06, "MEAN_MOTION_DDOT": 0}, "tle": {"line1": "1 25504U 98060A   25360.58071016  .00000474  00000+0  81486-4 0  9998", "line2": "2 25504  24.9957  56.5516 0017071  99.0432  49.9342 14.45430804435326"}}, "geometry": {"type": "Point", "coordinates": [15.175631930074383, -15.927168781186474]}}, {"type": "Feature", "properties": {"norad_id": 25757, "name": "DLR-TUBSAT", "group": "resource", "lat": 9.635124455672615, "lon": 167.60665095006547, "alt_km": 710.1816717958363, "timestamp": "2025-12-27T03:58:43.834552+00:00", "meta": {"OBJECT_NAME": "DLR-TUBSAT", "OBJECT_ID": "1999-029B", "EPOCH": "2025-12-17T13:22:10.787520", "MEAN_MOTION": 14.52359578, "ECCENTRICITY": 0.00141996, "INCLINATION": 98.6566, "RA_OF_ASC_NODE": 336.2196, "ARG_OF_PERICENTER": 177.8976, "MEAN_ANOMALY": 182.2281, "EPHEMERIS_TYPE": 0, "CLASSIFICATION_TYPE": "U", "NORAD_CAT_ID": 25757, "ELEMENT_SET_NO": 999, "REV_AT_EPOCH": 40688, "BSTAR": 3.7650132e-05, "MEAN_MOTION_DOT": 1.05e-06, "MEAN_MOTION_DDOT": 0}, "tle": {"line1": "1 25757U 99029B   25351.55706930  .00000105  00000+0  37650-4 0  9996", "line2": "2 25757  98.6566 336.2196 0014199 177.8976 182.2281 14.52359578406886"}}, "geometry": {"type": "Point", "coordinates": [167.60665095006547, 9.635124455672615]}}, {"type": "Feature", "properties": {"norad_id": 25994, "name": "TERRA", "group": "resource", "lat": -43.75210730361711, "lon": 60.03042869171845, "alt_km": 697.6857688189803, "timestamp": "2025-12-27T03:58:43.834564+00:00", "meta": {"OBJECT_NAME": "TERRA", "OBJECT_ID": "1999-068A", "EPOCH": "2025-12-26T18:56:16.779840", "MEAN_MOTION": 14.6091731, "ECCENTRICITY": 0.0003377, "INCLINATION": 97.973, "RA_OF_ASC_NODE": 51.9566, "ARG_OF_PERICENTER": 66.3807, "MEAN_ANOMALY": 69.4508, "EPHEMERIS_TYPE": 0, "CLASSIFICATION_TYPE": "U", "NORAD_CAT_ID": 25994, "ELEMENT_SET_NO": 999, "REV_AT_EPOCH": 38443, "BSTAR": 0.0001118, "MEAN_MOTION_DOT": 5.03e-06, "MEAN_MOTION_DDOT": 0}, "tle": {"line1": "1 25994U 99068A   25360.78908310  .00000503  00000+0  11180-3 0  9994", "line2": "2 25994  97.9730  51.9566 0003377  66.3807  69.4508 14.60917310384434"}}, "geometry": {"type": "Point", "coordinates": [60.03042869171845, -43.75210730361711]}}, {"type": "Feature", "properties": {"norad_id": 27004, "name": "MAROC-TUBSAT", "group": "resource", "lat": -72.14673765318925, "lon": -157.71549043173542, "alt_km": 999.4162104678617, "timestamp": "2025-12-27T03:58:43.834575+00:00", "meta": {"OBJECT_NAME": "MAROC-TUBSAT", "OBJECT_ID": "2001-056D", "EPOCH": "2025-12-26T10:56:47.892768", "MEAN_MOTION": 13.70253538, "ECCENTRICITY": 0.0019312, "INCLINATION": 99.7917, "RA_OF_ASC_NODE": 169.1415, "ARG_OF_PERICENTER": 223.7924, "MEAN_ANOMALY": 162.0928, "EPHEMERIS_TYPE": 0, "CLASSIFICATION_TYPE": "U", "NORAD_CAT_ID": 27004, "ELEMENT_SET_NO": 999, "REV_AT_EPOCH": 20253, "BSTAR": 2.8395e-05, "MEAN_MOTION_DOT": -2.2e-07, "MEAN_MOTION_DDOT": 0}, "tle": {"line1": "1 27004U 01056D   25360.45610987 -.00000022  00000+0  28395-4 0  9996", "line2": "2 27004  99.7917 169.1415 0019312 223.7924 162.0928 13.70253538202536"}}, "geometry": {"type": "Point", "coordinates": [-157.71549043173542, -72.14673765318925]}}, {"type": "Feature", "properties": {"norad_id": 27424, "name": "AQUA", "group": "resource", "lat": -57.04428059386969, "lon": 129.09698920245125, "alt_km": 695.5834734683885, "timestamp": "2025-12-27T03:58:43.834585+00:00", "meta": {"OBJECT_NAME": "AQUA", "OBJECT_ID": "2002-022A", "EPOCH": "2025-12-24T19:18:33.414624", "MEAN_MOTION": 14.61757572, "ECCENTRICITY": 0.00018094, "INCLINATION": 98.4055, "RA_OF_ASC_NODE": 319.881, "ARG_OF_PERICENTER": 102.1365, "MEAN_ANOMALY": 317.5475, "EPHEMERIS_TYPE": 0, "CLASSIFICATION_TYPE": "U", "NORAD_CAT_ID": 27424, "ELEMENT_SET_NO": 999, "REV_AT_EPOCH": 25779, "BSTAR": 0.00019560508, "MEAN_MOTION_DOT": 9.26e-06, "MEAN_MOTION_DDOT": 0}, "tle": {"line1": "1 27424U 02022A   25358.80455341  .00000926  00000+0  19561-3 0  9999", "line2": "2 27424  98.4055 319.8810 0001809 102.1365 317.5475 14.61757572257795"}}, "geometry": {"type": "Point", "coordinates": [129.09698920245125, -57.04428059386969]}}, {"type": "Feature", "properties": {"norad_id": 28051, "name": "IRS-P6 (RESOURCESAT-1)", "group": "resource", "lat": -28.282858437233514, "lon": -143.55597278034853, "alt_km": 761.7722023130509, "timestamp": "2025-12-27T03:58:43.834595+00:00", "meta": {"OBJECT_NAME": "IRS-P6 (RESOURCESAT-1)", "OBJECT_ID": "2003-046A", "EPOCH": "2025-12-26T21:07:10.126848", "MEAN_MOTION": 14.36080386, "ECCENTRICITY": 0.0064993, "INCLINATION": 98.2159, "RA_OF_ASC_NODE": 40.6301, "ARG_OF_PERICENTER": 138.4979, "MEAN_ANOMALY": 32.5612, "EPHEMERIS_TYPE": 0, "CLASSIFICATION_TYPE": "U", "NORAD_CAT_ID": 28051, "ELEMENT_SET_NO": 999, "REV_AT_EPOCH": 15579, "BSTAR": 3.5302e-05, "MEAN_MOTION_DOT": 6.5e-07, "MEAN_MOTION_DDOT": 0}, "tle": {"line1": "1 28051U 03046A   25360.87997832  .00000065  00000+0  35302-4 0  9995", "line2": "2 28051  98.2159  40.6301 0064993 138.4979  32.5612 14.36080386155793"}}, "geometry": {"type": "Point", "coordinates": [-143.55597278034853, -28.282858437233514]}}, {"type": "Feature", "properties": {"norad_id": 28220, "name": "SHIYAN-1 (SY-1)", "group": "resource", "lat": -5.076010608293067, "lon": -117.1489892441615, "alt_km": 483.3100149353231, "timestamp": "2025-12-27T03:58:43.834606+00:00", "meta": {"OBJECT_NAME": "SHIYAN-1 (SY-1)", "OBJECT_ID": "2004-012A", "EPOCH": "2025-12-26T16:10:24.292128", "MEAN_MOTION": 15.28506935, "ECCENTRICITY": 0.0005159, "INCLINATION": 97.8913, "RA_OF_ASC_NODE": 63.0359, "ARG_OF_PERICENTER": 266.2331, "MEAN_ANOMALY": 93.8317, "EPHEMERIS_TYPE": 0, "CLASSIFICATION_TYPE": "U", "NORAD_CAT_ID": 28220, "ELEMENT_SET_NO": 999, "REV_AT_EPOCH": 18469, "BSTAR": 0.00052959, "MEAN_MOTION_DOT": 0.00014628, "MEAN_MOTION_DDOT": 0}, "tle": {"line1": "1 28220U 04012A   25360.67389227  .00014628  00000+0  52959-3 0  9994", "line2": "2 28220  97.8913  63.0359 0005159 266.2331  93.8317 15.28506935184695"}}, "geometry": {"type": "Point", "coordinates": [-117.1489892441615, -5.076010608293067]}}, {"type": "Feature", "properties": {"norad_id": 28376, "name": "AURA", "group": "resource", "lat": -34.318370397394716, "lon": -42.805614000847704, "alt_km": 696.7930395113099, "timestamp": "2025-12-27T03:58:43.834616+00:00", "meta": {"OBJECT_NAME": "AURA", "OBJECT_ID": "2004-026A", "EPOCH": "2025-12-26T18:16:31.024416", "MEAN_MOTION": 14.60978456, "ECCENTRICITY": 0.000145, "INCLINATION": 98.3204, "RA_OF_ASC_NODE": 311.0548, "ARG_OF_PERICENTER": 90.1858, "MEAN_ANOMALY": 269.9508, "EPHEMERIS_TYPE": 0, "CLASSIFICATION_TYPE": "U", "NORAD_CAT_ID": 28376, "ELEMENT_SET_NO": 999, "REV_AT_EPOCH": 14103, "BSTAR": 0.00024738, "MEAN_MOTION_DOT": 1.165e-05, "MEAN_MOTION_DDOT": 0}, "tle": {"line1": "1 28376U 04026A   25360.76147019  .00001165  00000+0  24738-3 0  9998", "line2": "2 28376  98.3204 311.0548 0001450  90.1858 269.9508 14.60978456141035"}}, "geometry": {"type": "Point", "coordinates": [-42.805614000847704, -34.318370397394716]}}]}